IRIDIUM 166             
1 43570U 18061B   24247.72681515  .00001125  00000+0  39454-3 0  9995
2 43570  86.4010 328.9993 0001965  92.5952 267.5468 14.34228377320022
IRIDIUM 158             
1 43571U 18061C   24247.76488539  .00000983  00000+0  34389-3 0  9994
2 43571  86.4008 328.9927 0002017  97.2024 262.9401 14.34219613319991
IRIDIUM 165             
1 43572U 18061D   24247.72048838  .00000603  00000+0  20829-3 0  9998
2 43572  86.4010 329.0452 0002101  97.4972 262.6462 14.34220428320013
IRIDIUM 155             
1 43573U 18061E   24247.61266447  .00000168  00000+0  53041-4 0  9994
2 43573  86.4008 328.9913 0001974  94.3417 265.8004 14.34216620319966
IRIDIUM 163             
1 43575U 18061G   24247.78390857  .00000870  00000+0  30348-3 0  9991
2 43575  86.4008 328.9580 0002085  92.9484 267.1951 14.34215555320010
IRIDIUM 164             
1 43577U 18061J   24247.66974033  .00001145  00000+0  40174-3 0  9998
2 43577  86.4015 329.0417 0002135  94.7652 265.3787 14.34216815320033
